BEIJING 1               
1 28890U 05043A   15313.48472804  .00000235  00000-0  56627-4 0  9999
2 28890  97.8191 128.8346 0015040 193.6911 166.3892 14.61050583534893
HJ-1A                   
1 33320U 08041A   15313.43655223  .00000801  00000-0  12213-3 0  9998
2 33320  98.0138  14.3865 0027642 111.4041 249.0125 14.76369407386346
HJ-1B                   
1 33321U 08041B   15313.53588662  .00000819  00000-0  12407-3 0  9996
2 33321  98.0181  15.3193 0036102 126.9893 233.4639 14.76414040386348
YAOGAN 4                
1 33446U 08061A   15313.47833794  .00000414  00000-0  66906-4 0  9993
2 33446  97.6345 334.0998 0017909  49.4122 310.8655 14.76029383373600
DEIMOS-1                
1 35681U 09041A   15313.49382271  .00000477  00000-0  84812-4 0  9991
2 35681  98.0109 205.8754 0002602  60.7698 299.3770 14.71464133337003
UK-DMC 2                
1 35683U 09041C   15313.47046445  .00000357  00000-0  66261-4 0  9996
2 35683  97.9106 200.5995 0001486  89.9977 270.1408 14.70788880336901
RISAT 1                 
1 38248U 12017A   15313.49962238  .00001543  00000-0  10179-3 0  9996
2 38248  97.5639 318.3357 0003252 237.5792 273.8801 15.08940962194910
DMC3-FM1                
1 40715U 15032A   15313.55707454  .00000265  00000-0  48281-4 0  9998
2 40715  98.0354 201.6123 0015470 210.2609 149.7708 14.73711402 17947
DMC3-FM2                
1 40716U 15032B   15313.51182172 -.00001742  00000-0 -25880-3 0  9991
2 40716  98.0350 201.6648 0013321 215.8149 144.2181 14.73707893 17943
DMC3-FM3                
1 40717U 15032C   15313.53487748  .00003431  00000-0  53207-3 0  9990
2 40717  98.0973 201.8523 0017459 208.8977 151.1250 14.73714601 17945